{"type":"FeatureCollection","features":[{"type":"Feature","geometry":{"type":"Point","coordinates":[90,40]},"properties":{"kind":"continent","name_zh":"亚洲","name_en":"Asia","rank":1,"minzoom":0,"maxzoom":3.2}},{"type":"Feature","geometry":{"type":"Point","coordinates":[15,50]},"properties":{"kind":"continent","name_zh":"欧洲","name_en":"Europe","rank":1,"minzoom":0,"maxzoom":3.2}},{"type":"Feature","geometry":{"type":"Point","coordinates":[20,5]},"properties":{"kind":"continent","name_zh":"非洲","name_en":"Africa","rank":1,"minzoom":0,"maxzoom":3.2}},{"type":"Feature","geometry":{"type":"Point","coordinates":[-100,45]},"properties":{"kind":"continent","name_zh":"北美洲","name_en":"North America","rank":1,"minzoom":0,"maxzoom":3.2}},{"type":"Feature","geometry":{"type":"Point","coordinates":[-60,-15]},"properties":{"kind":"continent","name_zh":"南美洲","name_en":"South America","rank":1,"minzoom":0,"maxzoom":3.2}},{"type":"Feature","geometry":{"type":"Point","coordinates":[140,-25]},"properties":{"kind":"continent","name_zh":"大洋洲","name_en":"Oceania","rank":1,"minzoom":0,"maxzoom":3.2}},{"type":"Feature","geometry":{"type":"Point","coordinates":[20,-80]},"properties":{"kind":"continent","name_zh":"南极洲","name_en":"Antarctica","rank":1,"minzoom":0,"maxzoom":3.2}},{"type":"Feature","geometry":{"type":"Point","coordinates":[-150,0]},"properties":{"kind":"ocean","name_zh":"太平洋","name_en":"Pacific Ocean","rank":1,"minzoom":0,"maxzoom":4.2}},{"type":"Feature","geometry":{"type":"Point","coordinates":[-30,10]},"properties":{"kind":"ocean","name_zh":"大西洋","name_en":"Atlantic Ocean","rank":1,"minzoom":0,"maxzoom":4.2}},{"type":"Feature","geometry":{"type":"Point","coordinates":[70,-20]},"properties":{"kind":"ocean","name_zh":"印度洋","name_en":"Indian Ocean","rank":1,"minzoom":0,"maxzoom":4.2}},{"type":"Feature","geometry":{"type":"Point","coordinates":[0,80]},"properties":{"kind":"ocean","name_zh":"北冰洋","name_en":"Arctic Ocean","rank":1,"minzoom":0,"maxzoom":4.2}},{"type":"Feature","geometry":{"type":"Point","coordinates":[0,-60]},"properties":{"kind":"ocean","name_zh":"南大洋","name_en":"Southern Ocean","rank":2,"minzoom":0,"maxzoom":5.5}},{"type":"Feature","geometry":{"type":"Point","coordinates":[18,36]},"properties":{"kind":"ocean","name_zh":"地中海","name_en":"Mediterranean Sea","rank":2,"minzoom":0,"maxzoom":5.5}},{"type":"Feature","geometry":{"type":"Point","coordinates":[-75,15]},"properties":{"kind":"ocean","name_zh":"加勒比海","name_en":"Caribbean Sea","rank":2,"minzoom":0,"maxzoom":5.5}},{"type":"Feature","geometry":{"type":"Point","coordinates":[114,14]},"properties":{"kind":"ocean","name_zh":"南海","name_en":"South China Sea","rank":2,"minzoom":0,"maxzoom":5.5}},{"type":"Feature","geometry":{"type":"Point","coordinates":[125,28]},"properties":{"kind":"ocean","name_zh":"东海","name_en":"East China Sea","rank":2,"minzoom":0,"maxzoom":5.5}},{"type":"Feature","geometry":{"type":"Point","coordinates":[135,40]},"properties":{"kind":"ocean","name_zh":"日本海","name_en":"Sea of Japan","rank":2,"minzoom":0,"maxzoom":5.5}},{"type":"Feature","geometry":{"type":"Point","coordinates":[62,15]},"properties":{"kind":"ocean","name_zh":"阿拉伯海","name_en":"Arabian Sea","rank":2,"minzoom":0,"maxzoom":5.5}},{"type":"Feature","geometry":{"type":"Point","coordinates":[88,15]},"properties":{"kind":"ocean","name_zh":"孟加拉湾","name_en":"Bay of Bengal","rank":2,"minzoom":0,"maxzoom":5.5}},{"type":"Feature","geometry":{"type":"Point","coordinates":[38,20]},"properties":{"kind":"ocean","name_zh":"红海","name_en":"Red Sea","rank":2,"minzoom":0,"maxzoom":5.5}},{"type":"Feature","geometry":{"type":"Point","coordinates":[52,26]},"properties":{"kind":"ocean","name_zh":"波斯湾","name_en":"Persian Gulf","rank":2,"minzoom":0,"maxzoom":5.5}},{"type":"Feature","geometry":{"type":"Point","coordinates":[3,56]},"properties":{"kind":"ocean","name_zh":"北海","name_en":"North Sea","rank":2,"minzoom":0,"maxzoom":5.5}},{"type":"Feature","geometry":{"type":"Point","coordinates":[20,58]},"properties":{"kind":"ocean","name_zh":"波罗的海","name_en":"Baltic Sea","rank":2,"minzoom":0,"maxzoom":5.5}},{"type":"Feature","geometry":{"type":"Point","coordinates":[34,43]},"properties":{"kind":"ocean","name_zh":"黑海","name_en":"Black Sea","rank":2,"minzoom":0,"maxzoom":5.5}},{"type":"Feature","geometry":{"type":"Point","coordinates":[51,42]},"properties":{"kind":"ocean","name_zh":"里海","name_en":"Caspian Sea","rank":2,"minzoom":0,"maxzoom":5.5}},{"type":"Feature","geometry":{"type":"Point","coordinates":[-90,25]},"properties":{"kind":"ocean","name_zh":"墨西哥湾","name_en":"Gulf of Mexico","rank":2,"minzoom":0,"maxzoom":5.5}},{"type":"Feature","geometry":{"type":"Point","coordinates":[-175,58]},"properties":{"kind":"ocean","name_zh":"白令海","name_en":"Bering Sea","rank":2,"minzoom":0,"maxzoom":5.5}},{"type":"Feature","geometry":{"type":"Point","coordinates":[29.640587717647072,-19.147785505882347]},"properties":{"kind":"country","name_zh":"津巴布韦","name_en":"Zimbabwe","iso3":"ZWE","rank":2,"minzoom":2.4,"maxzoom":6.5}},{"type":"Feature","geometry":{"type":"Point","coordinates":[28.80630260742706,-12.520836286472148]},"properties":{"kind":"country","name_zh":"赞比亚","name_en":"Zambia","iso3":"ZMB","rank":2,"minzoom":2.4,"maxzoom":6.5}},{"type":"Feature","geometry":{"type":"Point","coordinates":[47.069121659459476,16.079427248648646]},"properties":{"kind":"country","name_zh":"也门","name_en":"Yemen","iso3":"YEM","rank":2,"minzoom":2.4,"maxzoom":6.5}},{"type":"Feature","geometry":{"type":"Point","coordinates":[106.08007794954935,16.6006454126126]},"properties":{"kind":"country","name_zh":"越南","name_en":"Vietnam","iso3":"VNM","rank":2,"minzoom":2.4,"maxzoom":6.5}},{"type":"Feature","geometry":{"type":"Point","coordinates":[-66.09062990310073,7.129347957364344]},"properties":{"kind":"country","name_zh":"委内瑞拉","name_en":"Venezuela","iso3":"VEN","rank":2,"minzoom":2.4,"maxzoom":6.5}},{"type":"Feature","geometry":{"type":"Point","coordinates":[12.434228333333332,41.90112316666667]},"properties":{"kind":"country","name_zh":"梵蒂冈","name_en":"Vatican","iso3":"VAT","rank":2,"minzoom":2.4,"maxzoom":6.5}},{"type":"Feature","geometry":{"type":"Point","coordinates":[166.87425248275855,-15.149686758620689]},"properties":{"kind":"country","name_zh":"瓦努阿图","name_en":"Vanuatu","iso3":"VUT","rank":2,"minzoom":2.4,"maxzoom":6.5}},{"type":"Feature","geometry":{"type":"Point","coordinates":[65.73824347262779,41.259692392335765]},"properties":{"kind":"country","name_zh":"乌兹别克斯坦","name_en":"Uzbekistan","iso3":"UZB","rank":2,"minzoom":2.4,"maxzoom":6.5}},{"type":"Feature","geometry":{"type":"Point","coordinates":[-56.018374013986005,-32.29726088811189]},"properties":{"kind":"country","name_zh":"乌拉圭","name_en":"Uruguay","iso3":"URY","rank":2,"minzoom":2.4,"maxzoom":6.5}},{"type":"Feature","geometry":{"type":"Point","coordinates":[151.6147686923077,7.361031461538461]},"properties":{"kind":"country","name_zh":"密克罗尼西亚","name_en":"Micronesia","iso3":"FSM","rank":2,"minzoom":2.4,"maxzoom":6.5}},{"type":"Feature","geometry":{"type":"Point","coordinates":[171.19824225000002,7.108272166666668]},"properties":{"kind":"country","name_zh":"马绍尔群岛","name_en":"Marshall Is.","iso3":"MHL","rank":2,"minzoom":2.4,"maxzoom":6.5}},{"type":"Feature","geometry":{"type":"Point","coordinates":[145.75279289999997,15.1746972]},"properties":{"kind":"country","name_zh":"北马里亚纳","name_en":"N. Mariana Is.","iso3":"MNP","rank":2,"minzoom":2.4,"maxzoom":6.5}},{"type":"Feature","geometry":{"type":"Point","coordinates":[-64.75052314285713,17.75273442857143]},"properties":{"kind":"country","name_zh":"美属维尔京群岛","name_en":"U.S. Virgin Is.","iso3":"VIR","rank":2,"minzoom":2.4,"maxzoom":6.5}},{"type":"Feature","geometry":{"type":"Point","coordinates":[144.773169,13.429471666666666]},"properties":{"kind":"country","name_zh":"关岛","name_en":"Guam","iso3":"GUM","rank":2,"minzoom":2.4,"maxzoom":6.5}},{"type":"Feature","geometry":{"type":"Point","coordinates":[-170.70761125,-14.30708025]},"properties":{"kind":"country","name_zh":"美属萨摩亚","name_en":"American Samoa","iso3":"ASM","rank":2,"minzoom":2.4,"maxzoom":6.5}},{"type":"Feature","geometry":{"type":"Point","coordinates":[-66.5130990487805,18.223062292682926]},"properties":{"kind":"country","name_zh":"波多黎各","name_en":"Puerto Rico","iso3":"PRI","rank":2,"minzoom":2.4,"maxzoom":6.5}},{"type":"Feature","geometry":{"type":"Point","coordinates":[-90.26470530552749,37.96611540804026]},"properties":{"kind":"country","name_zh":"美国","name_en":"United States of America","iso3":"USA","rank":1,"minzoom":1.6,"maxzoom":6.5}},{"type":"Feature","geometry":{"type":"Point","coordinates":[-36.72239080000001,-54.33648972727273]},"properties":{"kind":"country","name_zh":"南乔治亚","name_en":"S. Geo. and the Is.","iso3":"SGS","rank":2,"minzoom":2.4,"maxzoom":6.5}},{"type":"Feature","geometry":{"type":"Point","coordinates":[72.44874770588234,-7.321449941176471]},"properties":{"kind":"country","name_zh":"英属印度洋领地","name_en":"Br. Indian Ocean Ter.","iso3":"IOT","rank":2,"minzoom":2.4,"maxzoom":6.5}},{"type":"Feature","geometry":{"type":"Point","coordinates":[-14.367440363636364,-7.93765081818182]},"properties":{"kind":"country","name_zh":"圣赫勒拿","name_en":"Saint Helena","iso3":"SHN","rank":2,"minzoom":2.4,"maxzoom":6.5}},{"type":"Feature","geometry":{"type":"Point","coordinates":[-128.31308577777776,-24.371050222222223]},"properties":{"kind":"country","name_zh":"皮特凯恩","name_en":"Pitcairn Is.","iso3":"PCN","rank":2,"minzoom":2.4,"maxzoom":6.5}},{"type":"Feature","geometry":{"type":"Point","coordinates":[-63.05356449999999,18.224959333333334]},"properties":{"kind":"country","name_zh":"安圭拉","name_en":"Anguilla","iso3":"AIA","rank":2,"minzoom":2.4,"maxzoom":6.5}},{"type":"Feature","geometry":{"type":"Point","coordinates":[-60.15337339655172,-51.703256344827594]},"properties":{"kind":"country","name_zh":"福克兰群岛","name_en":"Falkland Is.","iso3":"FLK","rank":2,"minzoom":2.4,"maxzoom":6.5}},{"type":"Feature","geometry":{"type":"Point","coordinates":[-81.30120938461538,19.328812384615386]},"properties":{"kind":"country","name_zh":"开曼群岛","name_en":"Cayman Is.","iso3":"CYM","rank":2,"minzoom":2.4,"maxzoom":6.5}},{"type":"Feature","geometry":{"type":"Point","coordinates":[-64.765338,32.30740975]},"properties":{"kind":"country","name_zh":"百慕大","name_en":"Bermuda","iso3":"BMU","rank":2,"minzoom":2.4,"maxzoom":6.5}},{"type":"Feature","geometry":{"type":"Point","coordinates":[-64.33228088888889,18.73352866666667]},"properties":{"kind":"country","name_zh":"英属维尔京群岛","name_en":"British Virgin Is.","iso3":"VGB","rank":2,"minzoom":2.4,"maxzoom":6.5}},{"type":"Feature","geometry":{"type":"Point","coordinates":[-71.9421925,21.884370099999998]},"properties":{"kind":"country","name_zh":"特克斯和凯科斯","name_en":"Turks and Caicos Is.","iso3":"TCA","rank":2,"minzoom":2.4,"maxzoom":6.5}},{"type":"Feature","geometry":{"type":"Point","coordinates":[-62.180420000000005,16.74670057142857]},"properties":{"kind":"country","name_zh":"蒙特塞拉特","name_en":"Montserrat","iso3":"MSR","rank":2,"minzoom":2.4,"maxzoom":6.5}},{"type":"Feature","geometry":{"type":"Point","coordinates":[-2.099582333333333,49.209559333333324]},"properties":{"kind":"country","name_zh":"泽西","name_en":"Jersey","iso3":"JEY","rank":2,"minzoom":2.4,"maxzoom":6.5}},{"type":"Feature","geometry":{"type":"Point","coordinates":[-2.560030714285715,49.478543571428574]},"properties":{"kind":"country","name_zh":"根西","name_en":"Guernsey","iso3":"GGY","rank":2,"minzoom":2.4,"maxzoom":6.5}},{"type":"Feature","geometry":{"type":"Point","coordinates":[-4.545406999999999,54.222522866666665]},"properties":{"kind":"country","name_zh":"马恩岛","name_en":"Isle of Man","iso3":"IMN","rank":2,"minzoom":2.4,"maxzoom":6.5}},{"type":"Feature","geometry":{"type":"Point","coordinates":[-3.2142130157480313,54.22543252559052]},"properties":{"kind":"country","name_zh":"英国","name_en":"United Kingdom","iso3":"GBR","rank":2,"minzoom":2.4,"maxzoom":6.5}},{"type":"Feature","geometry":{"type":"Point","coordinates":[54.4842907410072,24.185814201438856]},"properties":{"kind":"country","name_zh":"阿联酋","name_en":"United Arab Emirates","iso3":"ARE","rank":2,"minzoom":2.4,"maxzoom":6.5}},{"type":"Feature","geometry":{"type":"Point","coordinates":[30.99399670447287,48.76024315654951]},"properties":{"kind":"country","name_zh":"乌克兰","name_en":"Ukraine","iso3":"UKR","rank":2,"minzoom":2.4,"maxzoom":6.5}},{"type":"Feature","geometry":{"type":"Point","coordinates":[32.127890111111135,1.3849242444444443]},"properties":{"kind":"country","name_zh":"乌干达","name_en":"Uganda","iso3":"UGA","rank":2,"minzoom":2.4,"maxzoom":6.5}},{"type":"Feature","geometry":{"type":"Point","coordinates":[58.42542211764701,39.525211969411785]},"properties":{"kind":"country","name_zh":"土库曼斯坦","name_en":"Turkmenistan","iso3":"TKM","rank":2,"minzoom":2.4,"maxzoom":6.5}},{"type":"Feature","geometry":{"type":"Point","coordinates":[35.77674654914528,38.64412672863248]},"properties":{"kind":"country","name_zh":"土耳其","name_en":"Turkey","iso3":"TUR","rank":2,"minzoom":2.4,"maxzoom":6.5}},{"type":"Feature","geometry":{"type":"Point","coordinates":[9.766611012121214,34.24019027878786]},"properties":{"kind":"country","name_zh":"突尼斯","name_en":"Tunisia","iso3":"TUN","rank":2,"minzoom":2.4,"maxzoom":6.5}},{"type":"Feature","geometry":{"type":"Point","coordinates":[-61.3245671,10.457853100000001]},"properties":{"kind":"country","name_zh":"特立尼达和多巴哥","name_en":"Trinidad and Tobago","iso3":"TTO","rank":2,"minzoom":2.4,"maxzoom":6.5}},{"type":"Feature","geometry":{"type":"Point","coordinates":[-175.20916749999998,-21.149444624999997]},"properties":{"kind":"country","name_zh":"汤加","name_en":"Tonga","iso3":"TON","rank":2,"minzoom":2.4,"maxzoom":6.5}},{"type":"Feature","geometry":{"type":"Point","coordinates":[0.7282575769230769,8.698815307692305]},"properties":{"kind":"country","name_zh":"多哥","name_en":"Togo","iso3":"TGO","rank":2,"minzoom":2.4,"maxzoom":6.5}},{"type":"Feature","geometry":{"type":"Point","coordinates":[125.84708568627448,-8.876698549019611]},"properties":{"kind":"country","name_zh":"东帝汶","name_en":"Timor-Leste","iso3":"TLS","rank":2,"minzoom":2.4,"maxzoom":6.5}},{"type":"Feature","geometry":{"type":"Point","coordinates":[100.8198534950691,13.807561518737671]},"properties":{"kind":"country","name_zh":"泰国","name_en":"Thailand","iso3":"THA","rank":2,"minzoom":2.4,"maxzoom":6.5}},{"type":"Feature","geometry":{"type":"Point","coordinates":[34.406791425531935,-6.605665294832831]},"properties":{"kind":"country","name_zh":"坦桑尼亚","name_en":"Tanzania","iso3":"TZA","rank":2,"minzoom":2.4,"maxzoom":6.5}},{"type":"Feature","geometry":{"type":"Point","coordinates":[70.75192829142857,38.87363630285716]},"properties":{"kind":"country","name_zh":"塔吉克斯坦","name_en":"Tajikistan","iso3":"TJK","rank":2,"minzoom":2.4,"maxzoom":6.5}},{"type":"Feature","geometry":{"type":"Point","coordinates":[120.994395147541,23.64123011475409]},"properties":{"kind":"country","name_zh":"台湾","name_en":"Taiwan","iso3":"TWN","rank":2,"minzoom":2.4,"maxzoom":6.5}},{"type":"Feature","geometry":{"type":"Point","coordinates":[38.000355797687845,35.08592439306356]},"properties":{"kind":"country","name_zh":"叙利亚","name_en":"Syria","iso3":"SYR","rank":2,"minzoom":2.4,"maxzoom":6.5}},{"type":"Feature","geometry":{"type":"Point","coordinates":[8.312952251336895,46.741566299465276]},"properties":{"kind":"country","name_zh":"瑞士","name_en":"Switzerland","iso3":"CHE","rank":2,"minzoom":2.4,"maxzoom":6.5}},{"type":"Feature","geometry":{"type":"Point","coordinates":[17.459642705882352,62.5565143509804]},"properties":{"kind":"country","name_zh":"瑞典","name_en":"Sweden","iso3":"SWE","rank":2,"minzoom":2.4,"maxzoom":6.5}},{"type":"Feature","geometry":{"type":"Point","coordinates":[31.568577842105253,-26.459529236842105]},"properties":{"kind":"country","name_zh":"斯威士兰","name_en":"eSwatini","iso3":"SWZ","rank":2,"minzoom":2.4,"maxzoom":6.5}},{"type":"Feature","geometry":{"type":"Point","coordinates":[-56.07116114130437,3.725439184782607]},"properties":{"kind":"country","name_zh":"苏里南","name_en":"Suriname","iso3":"SUR","rank":2,"minzoom":2.4,"maxzoom":6.5}},{"type":"Feature","geometry":{"type":"Point","coordinates":[30.345156745398782,7.90338936809816]},"properties":{"kind":"country","name_zh":"南苏丹","name_en":"S. Sudan","iso3":"SDS","rank":2,"minzoom":2.4,"maxzoom":6.5}},{"type":"Feature","geometry":{"type":"Point","coordinates":[30.12979105145412,13.965282890380312]},"properties":{"kind":"country","name_zh":"苏丹","name_en":"Sudan","iso3":"SDN","rank":2,"minzoom":2.4,"maxzoom":6.5}},{"type":"Feature","geometry":{"type":"Point","coordinates":[80.64747767105264,8.272033026315789]},"properties":{"kind":"country","name_zh":"斯里兰卡","name_en":"Sri Lanka","iso3":"LKA","rank":2,"minzoom":2.4,"maxzoom":6.5}},{"type":"Feature","geometry":{"type":"Point","coordinates":[-3.9641851333333338,40.91507826400003]},"properties":{"kind":"country","name_zh":"西班牙","name_en":"Spain","iso3":"ESP","rank":2,"minzoom":2.4,"maxzoom":6.5}},{"type":"Feature","geometry":{"type":"Point","coordinates":[127.37180117857145,36.09136526190476]},"properties":{"kind":"country","name_zh":"韩国","name_en":"South Korea","iso3":"KOR","rank":2,"minzoom":2.4,"maxzoom":6.5}},{"type":"Feature","geometry":{"type":"Point","coordinates":[24.314406394366202,-28.157243338028152]},"properties":{"kind":"country","name_zh":"南非","name_en":"South Africa","iso3":"ZAF","rank":2,"minzoom":2.4,"maxzoom":6.5}},{"type":"Feature","geometry":{"type":"Point","coordinates":[46.511429902097916,5.965227874125876]},"properties":{"kind":"country","name_zh":"索马里","name_en":"Somalia","iso3":"SOM","rank":2,"minzoom":2.4,"maxzoom":6.5}},{"type":"Feature","geometry":{"type":"Point","coordinates":[45.57787653164557,10.039106354430386]},"properties":{"kind":"country","name_zh":"索马里兰","name_en":"Somaliland","iso3":"SOL","rank":2,"minzoom":2.4,"maxzoom":6.5}},{"type":"Feature","geometry":{"type":"Point","coordinates":[159.188597,-8.046051433333334]},"properties":{"kind":"country","name_zh":"所罗门群岛","name_en":"Solomon Is.","iso3":"SLB","rank":2,"minzoom":2.4,"maxzoom":6.5}},{"type":"Feature","geometry":{"type":"Point","coordinates":[19.62059133793103,48.83819067586205]},"properties":{"kind":"country","name_zh":"斯洛伐克","name_en":"Slovakia","iso3":"SVK","rank":2,"minzoom":2.4,"maxzoom":6.5}},{"type":"Feature","geometry":{"type":"Point","coordinates":[14.843692348484847,46.123203696969696]},"properties":{"kind":"country","name_zh":"斯洛文尼亚","name_en":"Slovenia","iso3":"SVN","rank":2,"minzoom":2.4,"maxzoom":6.5}},{"type":"Feature","geometry":{"type":"Point","coordinates":[103.86655822222222,1.366416888888889]},"properties":{"kind":"country","name_zh":"新加坡","name_en":"Singapore","iso3":"SGP","rank":2,"minzoom":2.4,"maxzoom":6.5}},{"type":"Feature","geometry":{"type":"Point","coordinates":[-11.868891862068965,8.626152094827585]},"properties":{"kind":"country","name_zh":"塞拉利昂","name_en":"Sierra Leone","iso3":"SLE","rank":2,"minzoom":2.4,"maxzoom":6.5}},{"type":"Feature","geometry":{"type":"Point","coordinates":[55.481945875,-4.6799314999999995]},"properties":{"kind":"country","name_zh":"塞舌尔","name_en":"Seychelles","iso3":"SYC","rank":2,"minzoom":2.4,"maxzoom":6.5}},{"type":"Feature","geometry":{"type":"Point","coordinates":[20.755357191011214,44.247645992509376]},"properties":{"kind":"country","name_zh":"塞尔维亚","name_en":"Serbia","iso3":"SRB","rank":2,"minzoom":2.4,"maxzoom":6.5}},{"type":"Feature","geometry":{"type":"Point","coordinates":[-14.380691176954741,14.033233876543218]},"properties":{"kind":"country","name_zh":"塞内加尔","name_en":"Senegal","iso3":"SEN","rank":2,"minzoom":2.4,"maxzoom":6.5}},{"type":"Feature","geometry":{"type":"Point","coordinates":[45.54088248969073,23.43816331185566]},"properties":{"kind":"country","name_zh":"沙特阿拉伯","name_en":"Saudi Arabia","iso3":"SAU","rank":1,"minzoom":1.6,"maxzoom":6.5}},{"type":"Feature","geometry":{"type":"Point","coordinates":[6.59800625,0.22448733333333334]},"properties":{"kind":"country","name_zh":"圣多美和普林西比","name_en":"São Tomé and Principe","iso3":"STP","rank":2,"minzoom":2.4,"maxzoom":6.5}},{"type":"Feature","geometry":{"type":"Point","coordinates":[12.464746,43.936662999999996]},"properties":{"kind":"country","name_zh":"圣马力诺","name_en":"San Marino","iso3":"SMR","rank":2,"minzoom":2.4,"maxzoom":6.5}},{"type":"Feature","geometry":{"type":"Point","coordinates":[-171.70830435714285,-13.950836999999998]},"properties":{"kind":"country","name_zh":"萨摩亚","name_en":"Samoa","iso3":"WSM","rank":2,"minzoom":2.4,"maxzoom":6.5}},{"type":"Feature","geometry":{"type":"Point","coordinates":[-61.234022608695646,13.00992056521739]},"properties":{"kind":"country","name_zh":"圣文森特和格林纳丁斯","name_en":"St. Vin. and Gren.","iso3":"VCT","rank":2,"minzoom":2.4,"maxzoom":6.5}},{"type":"Feature","geometry":{"type":"Point","coordinates":[-60.96753429999999,13.911406199999998]},"properties":{"kind":"country","name_zh":"圣卢西亚","name_en":"Saint Lucia","iso3":"LCA","rank":2,"minzoom":2.4,"maxzoom":6.5}},{"type":"Feature","geometry":{"type":"Point","coordinates":[-62.73583607692308,17.310802230769234]},"properties":{"kind":"country","name_zh":"圣基茨和尼维斯","name_en":"St. Kitts and Nevis","iso3":"KNA","rank":2,"minzoom":2.4,"maxzoom":6.5}},{"type":"Feature","geometry":{"type":"Point","coordinates":[29.912305855421682,-2.005829963855421]},"properties":{"kind":"country","name_zh":"卢旺达","name_en":"Rwanda","iso3":"RWA","rank":2,"minzoom":2.4,"maxzoom":6.5}},{"type":"Feature","geometry":{"type":"Point","coordinates":[94.07122545015301,59.636877424355]},"properties":{"kind":"country","name_zh":"俄罗斯","name_en":"Russia","iso3":"RUS","rank":1,"minzoom":1.6,"maxzoom":6.5}},{"type":"Feature","geometry":{"type":"Point","coordinates":[24.52921204744525,45.844648529197094]},"properties":{"kind":"country","name_zh":"罗马尼亚","name_en":"Romania","iso3":"ROU","rank":2,"minzoom":2.4,"maxzoom":6.5}},{"type":"Feature","geometry":{"type":"Point","coordinates":[51.19335655882353,25.19930494117647]},"properties":{"kind":"country","name_zh":"卡塔尔","name_en":"Qatar","iso3":"QAT","rank":2,"minzoom":2.4,"maxzoom":6.5}},{"type":"Feature","geometry":{"type":"Point","coordinates":[-7.894406021505377,39.956439543010745]},"properties":{"kind":"country","name_zh":"葡萄牙","name_en":"Portugal","iso3":"PRT","rank":2,"minzoom":2.4,"maxzoom":6.5}},{"type":"Feature","geometry":{"type":"Point","coordinates":[19.099176749999994,51.40067015822783]},"properties":{"kind":"country","name_zh":"波兰","name_en":"Poland","iso3":"POL","rank":2,"minzoom":2.4,"maxzoom":6.5}},{"type":"Feature","geometry":{"type":"Point","coordinates":[121.86273297457628,15.07976254237289]},"properties":{"kind":"country","name_zh":"菲律宾","name_en":"Philippines","iso3":"PHL","rank":2,"minzoom":2.4,"maxzoom":6.5}},{"type":"Feature","geometry":{"type":"Point","coordinates":[-73.97537644482169,-7.445722699490661]},"properties":{"kind":"country","name_zh":"秘鲁","name_en":"Peru","iso3":"PER","rank":2,"minzoom":2.4,"maxzoom":6.5}},{"type":"Feature","geometry":{"type":"Point","coordinates":[-57.582876319066116,-23.73778916342412]},"properties":{"kind":"country","name_zh":"巴拉圭","name_en":"Paraguay","iso3":"PRY","rank":2,"minzoom":2.4,"maxzoom":6.5}},{"type":"Feature","geometry":{"type":"Point","coordinates":[145.34650059468433,-7.622256239202655]},"properties":{"kind":"country","name_zh":"巴布亚新几内亚","name_en":"Papua New Guinea","iso3":"PNG","rank":2,"minzoom":2.4,"maxzoom":6.5}},{"type":"Feature","geometry":{"type":"Point","coordinates":[-80.18392923923447,8.496070153110052]},"properties":{"kind":"country","name_zh":"巴拿马","name_en":"Panama","iso3":"PAN","rank":2,"minzoom":2.4,"maxzoom":6.5}},{"type":"Feature","geometry":{"type":"Point","coordinates":[134.58779291666667,7.519657166666666]},"properties":{"kind":"country","name_zh":"帕劳","name_en":"Palau","iso3":"PLW","rank":2,"minzoom":2.4,"maxzoom":6.5}},{"type":"Feature","geometry":{"type":"Point","coordinates":[69.80404599649741,30.175477183887857]},"properties":{"kind":"country","name_zh":"巴基斯坦","name_en":"Pakistan","iso3":"PAK","rank":2,"minzoom":2.4,"maxzoom":6.5}},{"type":"Feature","geometry":{"type":"Point","coordinates":[55.82312991000003,21.098863299999984]},"properties":{"kind":"country","name_zh":"阿曼","name_en":"Oman","iso3":"OMN","rank":2,"minzoom":2.4,"maxzoom":6.5}},{"type":"Feature","geometry":{"type":"Point","coordinates":[15.105443607645869,65.24969233501005]},"properties":{"kind":"country","name_zh":"挪威","name_en":"Norway","iso3":"NOR","rank":2,"minzoom":2.4,"maxzoom":6.5}},{"type":"Feature","geometry":{"type":"Point","coordinates":[127.40460737848608,40.409624195219145]},"properties":{"kind":"country","name_zh":"朝鲜","name_en":"North Korea","iso3":"PRK","rank":2,"minzoom":2.4,"maxzoom":6.5}},{"type":"Feature","geometry":{"type":"Point","coordinates":[7.761629341736696,8.633980420168067]},"properties":{"kind":"country","name_zh":"尼日利亚","name_en":"Nigeria","iso3":"NGA","rank":2,"minzoom":2.4,"maxzoom":6.5}},{"type":"Feature","geometry":{"type":"Point","coordinates":[6.370336650980396,15.34526579215686]},"properties":{"kind":"country","name_zh":"尼日尔","name_en":"Niger","iso3":"NER","rank":2,"minzoom":2.4,"maxzoom":6.5}},{"type":"Feature","geometry":{"type":"Point","coordinates":[-84.81859519886369,13.075517392045453]},"properties":{"kind":"country","name_zh":"尼加拉瓜","name_en":"Nicaragua","iso3":"NIC","rank":2,"minzoom":2.4,"maxzoom":6.5}},{"type":"Feature","geometry":{"type":"Point","coordinates":[170.7785460617284,-43.65130839197529]},"properties":{"kind":"country","name_zh":"新西兰","name_en":"New Zealand","iso3":"NZL","rank":2,"minzoom":2.4,"maxzoom":6.5}},{"type":"Feature","geometry":{"type":"Point","coordinates":[-169.85709225,-19.043029875]},"properties":{"kind":"country","name_zh":"纽埃","name_en":"Niue","iso3":"NIU","rank":2,"minzoom":2.4,"maxzoom":6.5}},{"type":"Feature","geometry":{"type":"Point","coordinates":[-159.7851029090909,-21.22557718181818]},"properties":{"kind":"country","name_zh":"库克群岛","name_en":"Cook Is.","iso3":"COK","rank":2,"minzoom":2.4,"maxzoom":6.5}},{"type":"Feature","geometry":{"type":"Point","coordinates":[5.587642129629631,51.80564275308641]},"properties":{"kind":"country","name_zh":"荷兰","name_en":"Netherlands","iso3":"NLD","rank":2,"minzoom":2.4,"maxzoom":6.5}},{"type":"Feature","geometry":{"type":"Point","coordinates":[-69.96773420000001,12.507226499999998]},"properties":{"kind":"country","name_zh":"阿鲁巴","name_en":"Aruba","iso3":"ABW","rank":2,"minzoom":2.4,"maxzoom":6.5}},{"type":"Feature","geometry":{"type":"Point","coordinates":[-68.9649024,12.209072299999999]},"properties":{"kind":"country","name_zh":"库拉索","name_en":"Curaçao","iso3":"CUW","rank":2,"minzoom":2.4,"maxzoom":6.5}},{"type":"Feature","geometry":{"type":"Point","coordinates":[84.32216170792077,28.096879331683173]},"properties":{"kind":"country","name_zh":"尼泊尔","name_en":"Nepal","iso3":"NPL","rank":2,"minzoom":2.4,"maxzoom":6.5}},{"type":"Feature","geometry":{"type":"Point","coordinates":[166.935925125,-0.517456]},"properties":{"kind":"country","name_zh":"瑙鲁","name_en":"Nauru","iso3":"NRU","rank":2,"minzoom":2.4,"maxzoom":6.5}},{"type":"Feature","geometry":{"type":"Point","coordinates":[18.141386757446814,-21.82045586808509]},"properties":{"kind":"country","name_zh":"纳米比亚","name_en":"Namibia","iso3":"NAM","rank":2,"minzoom":2.4,"maxzoom":6.5}},{"type":"Feature","geometry":{"type":"Point","coordinates":[35.34418534666667,-17.32238370888887]},"properties":{"kind":"country","name_zh":"莫桑比克","name_en":"Mozambique","iso3":"MOZ","rank":2,"minzoom":2.4,"maxzoom":6.5}},{"type":"Feature","geometry":{"type":"Point","coordinates":[-9.028324842391303,28.485670769021745]},"properties":{"kind":"country","name_zh":"摩洛哥","name_en":"Morocco","iso3":"MAR","rank":2,"minzoom":2.4,"maxzoom":6.5}},{"type":"Feature","geometry":{"type":"Point","coordinates":[-12.375754008733626,24.43087940611358]},"properties":{"kind":"country","name_zh":"西撒哈拉","name_en":"W. Sahara","iso3":"SAH","rank":2,"minzoom":2.4,"maxzoom":6.5}},{"type":"Feature","geometry":{"type":"Point","coordinates":[19.25752481521739,42.81717373913043]},"properties":{"kind":"country","name_zh":"黑山","name_en":"Montenegro","iso3":"MNE","rank":2,"minzoom":2.4,"maxzoom":6.5}},{"type":"Feature","geometry":{"type":"Point","coordinates":[102.8787231426631,47.77735646467391]},"properties":{"kind":"country","name_zh":"蒙古","name_en":"Mongolia","iso3":"MNG","rank":2,"minzoom":2.4,"maxzoom":6.5}},{"type":"Feature","geometry":{"type":"Point","coordinates":[28.534606402684563,47.082134798657705]},"properties":{"kind":"country","name_zh":"摩尔多瓦","name_en":"Moldova","iso3":"MDA","rank":2,"minzoom":2.4,"maxzoom":6.5}},{"type":"Feature","geometry":{"type":"Point","coordinates":[7.4116490000000015,43.754792]},"properties":{"kind":"country","name_zh":"摩纳哥","name_en":"Monaco","iso3":"MCO","rank":2,"minzoom":2.4,"maxzoom":6.5}},{"type":"Feature","geometry":{"type":"Point","coordinates":[-102.89937186467888,24.06109950573395]},"properties":{"kind":"country","name_zh":"墨西哥","name_en":"Mexico","iso3":"MEX","rank":1,"minzoom":1.6,"maxzoom":6.5}},{"type":"Feature","geometry":{"type":"Point","coordinates":[57.545312578947375,-20.29733757894737]},"properties":{"kind":"country","name_zh":"毛里求斯","name_en":"Mauritius","iso3":"MUS","rank":2,"minzoom":2.4,"maxzoom":6.5}},{"type":"Feature","geometry":{"type":"Point","coordinates":[-11.498976629392969,19.77645892012782]},"properties":{"kind":"country","name_zh":"毛里塔尼亚","name_en":"Mauritania","iso3":"MRT","rank":2,"minzoom":2.4,"maxzoom":6.5}},{"type":"Feature","geometry":{"type":"Point","coordinates":[14.473816125,35.8802185]},"properties":{"kind":"country","name_zh":"马耳他","name_en":"Malta","iso3":"MLT","rank":2,"minzoom":2.4,"maxzoom":6.5}},{"type":"Feature","geometry":{"type":"Point","coordinates":[-5.433865780590719,14.817743455696199]},"properties":{"kind":"country","name_zh":"马里","name_en":"Mali","iso3":"MLI","rank":2,"minzoom":2.4,"maxzoom":6.5}},{"type":"Feature","geometry":{"type":"Point","coordinates":[73.50502546153847,4.197359538461539]},"properties":{"kind":"country","name_zh":"马尔代夫","name_en":"Maldives","iso3":"MDV","rank":2,"minzoom":2.4,"maxzoom":6.5}},{"type":"Feature","geometry":{"type":"Point","coordinates":[114.77803126073626,3.693954573619633]},"properties":{"kind":"country","name_zh":"马来西亚","name_en":"Malaysia","iso3":"MYS","rank":2,"minzoom":2.4,"maxzoom":6.5}},{"type":"Feature","geometry":{"type":"Point","coordinates":[34.04945465044247,-12.793906884955751]},"properties":{"kind":"country","name_zh":"马拉维","name_en":"Malawi","iso3":"MWI","rank":2,"minzoom":2.4,"maxzoom":6.5}},{"type":"Feature","geometry":{"type":"Point","coordinates":[46.87212987250994,-17.913396414342635]},"properties":{"kind":"country","name_zh":"马达加斯加","name_en":"Madagascar","iso3":"MDG","rank":2,"minzoom":2.4,"maxzoom":6.5}},{"type":"Feature","geometry":{"type":"Point","coordinates":[21.64007769135802,41.63538838271606]},"properties":{"kind":"country","name_zh":"北马其顿","name_en":"North Macedonia","iso3":"MKD","rank":2,"minzoom":2.4,"maxzoom":6.5}},{"type":"Feature","geometry":{"type":"Point","coordinates":[6.062349391304349,49.76263158695653]},"properties":{"kind":"country","name_zh":"卢森堡","name_en":"Luxembourg","iso3":"LUX","rank":2,"minzoom":2.4,"maxzoom":6.5}},{"type":"Feature","geometry":{"type":"Point","coordinates":[24.26370826206895,55.04986866896554]},"properties":{"kind":"country","name_zh":"立陶宛","name_en":"Lithuania","iso3":"LTU","rank":2,"minzoom":2.4,"maxzoom":6.5}},{"type":"Feature","geometry":{"type":"Point","coordinates":[9.547135333333333,47.14267579999999]},"properties":{"kind":"country","name_zh":"列支敦士登","name_en":"Liechtenstein","iso3":"LIE","rank":2,"minzoom":2.4,"maxzoom":6.5}},{"type":"Feature","geometry":{"type":"Point","coordinates":[17.63318902723737,28.180448412451362]},"properties":{"kind":"country","name_zh":"利比亚","name_en":"Libya","iso3":"LBY","rank":2,"minzoom":2.4,"maxzoom":6.5}},{"type":"Feature","geometry":{"type":"Point","coordinates":[-9.107396230215821,6.985899187050358]},"properties":{"kind":"country","name_zh":"利比里亚","name_en":"Liberia","iso3":"LBR","rank":2,"minzoom":2.4,"maxzoom":6.5}},{"type":"Feature","geometry":{"type":"Point","coordinates":[28.199658857142847,-29.677135753246755]},"properties":{"kind":"country","name_zh":"莱索托","name_en":"Lesotho","iso3":"LSO","rank":2,"minzoom":2.4,"maxzoom":6.5}},{"type":"Feature","geometry":{"type":"Point","coordinates":[35.97088282258065,33.860639]},"properties":{"kind":"country","name_zh":"黎巴嫩","name_en":"Lebanon","iso3":"LBN","rank":2,"minzoom":2.4,"maxzoom":6.5}},{"type":"Feature","geometry":{"type":"Point","coordinates":[25.36406736428571,56.854189100000006]},"properties":{"kind":"country","name_zh":"拉脱维亚","name_en":"Latvia","iso3":"LVA","rank":2,"minzoom":2.4,"maxzoom":6.5}},{"type":"Feature","geometry":{"type":"Point","coordinates":[103.79593848974358,18.43688927179486]},"properties":{"kind":"country","name_zh":"老挝","name_en":"Laos","iso3":"LAO","rank":2,"minzoom":2.4,"maxzoom":6.5}},{"type":"Feature","geometry":{"type":"Point","coordinates":[73.3609747277937,41.0226002808023]},"properties":{"kind":"country","name_zh":"吉尔吉斯斯坦","name_en":"Kyrgyzstan","iso3":"KGZ","rank":2,"minzoom":2.4,"maxzoom":6.5}},{"type":"Feature","geometry":{"type":"Point","coordinates":[47.69312578431372,29.34078868627451]},"properties":{"kind":"country","name_zh":"科威特","name_en":"Kuwait","iso3":"KWT","rank":2,"minzoom":2.4,"maxzoom":6.5}},{"type":"Feature","geometry":{"type":"Point","coordinates":[20.8401191111111,42.59344281944445]},"properties":{"kind":"country","name_zh":"科索沃","name_en":"Kosovo","iso3":"KOS","rank":2,"minzoom":2.4,"maxzoom":6.5}},{"type":"Feature","geometry":{"type":"Point","coordinates":[-171.67954495833328,-2.8063558333333334]},"properties":{"kind":"country","name_zh":"基里巴斯","name_en":"Kiribati","iso3":"KIR","rank":2,"minzoom":2.4,"maxzoom":6.5}},{"type":"Feature","geometry":{"type":"Point","coordinates":[37.53284915277778,0.6671465462962964]},"properties":{"kind":"country","name_zh":"肯尼亚","name_en":"Kenya","iso3":"KEN","rank":2,"minzoom":2.4,"maxzoom":6.5}},{"type":"Feature","geometry":{"type":"Point","coordinates":[66.17743623629826,47.96374126954174]},"properties":{"kind":"country","name_zh":"哈萨克斯坦","name_en":"Kazakhstan","iso3":"KAZ","rank":1,"minzoom":1.6,"maxzoom":6.5}},{"type":"Feature","geometry":{"type":"Point","coordinates":[36.71194767708332,31.335672020833314]},"properties":{"kind":"country","name_zh":"约旦","name_en":"Jordan","iso3":"JOR","rank":2,"minzoom":2.4,"maxzoom":6.5}},{"type":"Feature","geometry":{"type":"Point","coordinates":[137.82658155584414,36.720663041558446]},"properties":{"kind":"country","name_zh":"日本","name_en":"Japan","iso3":"JPN","rank":2,"minzoom":2.4,"maxzoom":6.5}},{"type":"Feature","geometry":{"type":"Point","coordinates":[-77.27983802083334,18.116650416666662]},"properties":{"kind":"country","name_zh":"牙买加","name_en":"Jamaica","iso3":"JAM","rank":2,"minzoom":2.4,"maxzoom":6.5}},{"type":"Feature","geometry":{"type":"Point","coordinates":[11.902108161879896,43.85885357180157]},"properties":{"kind":"country","name_zh":"意大利","name_en":"Italy","iso3":"ITA","rank":2,"minzoom":2.4,"maxzoom":6.5}},{"type":"Feature","geometry":{"type":"Point","coordinates":[35.21197230188679,31.89406170754717]},"properties":{"kind":"country","name_zh":"以色列","name_en":"Israel","iso3":"ISR","rank":2,"minzoom":2.4,"maxzoom":6.5}},{"type":"Feature","geometry":{"type":"Point","coordinates":[35.194843825,31.929820549999988]},"properties":{"kind":"country","name_zh":"巴勒斯坦","name_en":"Palestine","iso3":"PSX","rank":2,"minzoom":2.4,"maxzoom":6.5}},{"type":"Feature","geometry":{"type":"Point","coordinates":[-8.389939019672141,53.482855881967225]},"properties":{"kind":"country","name_zh":"爱尔兰","name_en":"Ireland","iso3":"IRL","rank":2,"minzoom":2.4,"maxzoom":6.5}},{"type":"Feature","geometry":{"type":"Point","coordinates":[44.57828548927041,33.78983474678112]},"properties":{"kind":"country","name_zh":"伊拉克","name_en":"Iraq","iso3":"IRQ","rank":2,"minzoom":2.4,"maxzoom":6.5}},{"type":"Feature","geometry":{"type":"Point","coordinates":[53.056372385542154,33.56156646815839]},"properties":{"kind":"country","name_zh":"伊朗","name_en":"Iran","iso3":"IRN","rank":2,"minzoom":2.4,"maxzoom":6.5}},{"type":"Feature","geometry":{"type":"Point","coordinates":[114.2591953298968,0.30574396649484603]},"properties":{"kind":"country","name_zh":"印度尼西亚","name_en":"Indonesia","iso3":"IDN","rank":1,"minzoom":1.6,"maxzoom":6.5}},{"type":"Feature","geometry":{"type":"Point","coordinates":[82.7001523156343,24.932038879793524]},"properties":{"kind":"country","name_zh":"印度","name_en":"India","iso3":"IND","rank":1,"minzoom":1.6,"maxzoom":6.5}},{"type":"Feature","geometry":{"type":"Point","coordinates":[-19.86729001103754,65.30841890949237]},"properties":{"kind":"country","name_zh":"冰岛","name_en":"Iceland","iso3":"ISL","rank":2,"minzoom":2.4,"maxzoom":6.5}},{"type":"Feature","geometry":{"type":"Point","coordinates":[19.42393128971961,47.23226490654206]},"properties":{"kind":"country","name_zh":"匈牙利","name_en":"Hungary","iso3":"HUN","rank":2,"minzoom":2.4,"maxzoom":6.5}},{"type":"Feature","geometry":{"type":"Point","coordinates":[-86.24792849738218,14.624322287958108]},"properties":{"kind":"country","name_zh":"洪都拉斯","name_en":"Honduras","iso3":"HND","rank":2,"minzoom":2.4,"maxzoom":6.5}},{"type":"Feature","geometry":{"type":"Point","coordinates":[-72.72411576923078,18.806503780219778]},"properties":{"kind":"country","name_zh":"海地","name_en":"Haiti","iso3":"HTI","rank":2,"minzoom":2.4,"maxzoom":6.5}},{"type":"Feature","geometry":{"type":"Point","coordinates":[-58.81703027177701,4.374312501742162]},"properties":{"kind":"country","name_zh":"圭亚那","name_en":"Guyana","iso3":"GUY","rank":2,"minzoom":2.4,"maxzoom":6.5}},{"type":"Feature","geometry":{"type":"Point","coordinates":[-15.113532346938781,11.874256632653061]},"properties":{"kind":"country","name_zh":"几内亚比绍","name_en":"Guinea-Bissau","iso3":"GNB","rank":2,"minzoom":2.4,"maxzoom":6.5}},{"type":"Feature","geometry":{"type":"Point","coordinates":[-10.714574477011494,10.105041908045978]},"properties":{"kind":"country","name_zh":"几内亚","name_en":"Guinea","iso3":"GIN","rank":2,"minzoom":2.4,"maxzoom":6.5}},{"type":"Feature","geometry":{"type":"Point","coordinates":[-90.22665039999997,15.556898347826092]},"properties":{"kind":"country","name_zh":"危地马拉","name_en":"Guatemala","iso3":"GTM","rank":2,"minzoom":2.4,"maxzoom":6.5}},{"type":"Feature","geometry":{"type":"Point","coordinates":[-61.70316822222222,12.098562111111113]},"properties":{"kind":"country","name_zh":"格林纳达","name_en":"Grenada","iso3":"GRD","rank":2,"minzoom":2.4,"maxzoom":6.5}},{"type":"Feature","geometry":{"type":"Point","coordinates":[22.994271740641707,39.43203387165776]},"properties":{"kind":"country","name_zh":"希腊","name_en":"Greece","iso3":"GRC","rank":2,"minzoom":2.4,"maxzoom":6.5}},{"type":"Feature","geometry":{"type":"Point","coordinates":[-1.0788799107981222,8.298039769953053]},"properties":{"kind":"country","name_zh":"加纳","name_en":"Ghana","iso3":"GHA","rank":2,"minzoom":2.4,"maxzoom":6.5}},{"type":"Feature","geometry":{"type":"Point","coordinates":[10.261105241869924,50.69453610772351]},"properties":{"kind":"country","name_zh":"德国","name_en":"Germany","iso3":"DEU","rank":2,"minzoom":2.4,"maxzoom":6.5}},{"type":"Feature","geometry":{"type":"Point","coordinates":[43.85181614024388,42.05945567073173]},"properties":{"kind":"country","name_zh":"格鲁吉亚","name_en":"Georgia","iso3":"GEO","rank":2,"minzoom":2.4,"maxzoom":6.5}},{"type":"Feature","geometry":{"type":"Point","coordinates":[-15.505665369863015,13.43639165753425]},"properties":{"kind":"country","name_zh":"冈比亚","name_en":"Gambia","iso3":"GMB","rank":2,"minzoom":2.4,"maxzoom":6.5}},{"type":"Feature","geometry":{"type":"Point","coordinates":[11.622208,-0.8627627195571956]},"properties":{"kind":"country","name_zh":"加蓬","name_en":"Gabon","iso3":"GAB","rank":2,"minzoom":2.4,"maxzoom":6.5}},{"type":"Feature","geometry":{"type":"Point","coordinates":[2.646261312734084,46.61446327715359]},"properties":{"kind":"country","name_zh":"法国","name_en":"France","iso3":"FRA","rank":2,"minzoom":2.4,"maxzoom":6.5}},{"type":"Feature","geometry":{"type":"Point","coordinates":[-56.3248178,46.93788093333333]},"properties":{"kind":"country","name_zh":"圣皮埃尔和密克隆","name_en":"St. Pierre and Miquelon","iso3":"SPM","rank":2,"minzoom":2.4,"maxzoom":6.5}},{"type":"Feature","geometry":{"type":"Point","coordinates":[-178.1131781111111,-14.28784722222222]},"properties":{"kind":"country","name_zh":"瓦利斯和富图纳","name_en":"Wallis and Futuna Is.","iso3":"WLF","rank":2,"minzoom":2.4,"maxzoom":6.5}},{"type":"Feature","geometry":{"type":"Point","coordinates":[-63.05110228571429,18.090038999999997]},"properties":{"kind":"country","name_zh":"法属圣马丁","name_en":"St-Martin","iso3":"MAF","rank":2,"minzoom":2.4,"maxzoom":6.5}},{"type":"Feature","geometry":{"type":"Point","coordinates":[-62.84355481818182,17.896022727272726]},"properties":{"kind":"country","name_zh":"圣巴泰勒米","name_en":"St-Barthélemy","iso3":"BLM","rank":2,"minzoom":2.4,"maxzoom":6.5}},{"type":"Feature","geometry":{"type":"Point","coordinates":[-140.77853858823528,-17.78690270588235]},"properties":{"kind":"country","name_zh":"法属波利尼西亚","name_en":"Fr. Polynesia","iso3":"PYF","rank":2,"minzoom":2.4,"maxzoom":6.5}},{"type":"Feature","geometry":{"type":"Point","coordinates":[165.4864573846153,-21.316511507692304]},"properties":{"kind":"country","name_zh":"新喀里多尼亚","name_en":"New Caledonia","iso3":"NCL","rank":2,"minzoom":2.4,"maxzoom":6.5}},{"type":"Feature","geometry":{"type":"Point","coordinates":[69.56320626262627,-49.28401990909089]},"properties":{"kind":"country","name_zh":"法属南部领地","name_en":"Fr. S. Antarctic Lands","iso3":"ATF","rank":2,"minzoom":2.4,"maxzoom":6.5}},{"type":"Feature","geometry":{"type":"Point","coordinates":[19.954101593749996,60.26675575000001]},"properties":{"kind":"country","name_zh":"奥兰群岛","name_en":"Åland","iso3":"ALD","rank":2,"minzoom":2.4,"maxzoom":6.5}},{"type":"Feature","geometry":{"type":"Point","coordinates":[25.363340311363604,64.82624976363641]},"properties":{"kind":"country","name_zh":"芬兰","name_en":"Finland","iso3":"FIN","rank":2,"minzoom":2.4,"maxzoom":6.5}},{"type":"Feature","geometry":{"type":"Point","coordinates":[179.322759122807,-16.596421035087715]},"properties":{"kind":"country","name_zh":"斐济","name_en":"Fiji","iso3":"FJI","rank":2,"minzoom":2.4,"maxzoom":6.5}},{"type":"Feature","geometry":{"type":"Point","coordinates":[38.93542884105965,9.16461382781457]},"properties":{"kind":"country","name_zh":"埃塞俄比亚","name_en":"Ethiopia","iso3":"ETH","rank":2,"minzoom":2.4,"maxzoom":6.5}},{"type":"Feature","geometry":{"type":"Point","coordinates":[25.86404377499999,58.51351806666669]},"properties":{"kind":"country","name_zh":"爱沙尼亚","name_en":"Estonia","iso3":"EST","rank":2,"minzoom":2.4,"maxzoom":6.5}},{"type":"Feature","geometry":{"type":"Point","coordinates":[39.212827774999994,15.063192437499996]},"properties":{"kind":"country","name_zh":"厄立特里亚","name_en":"Eritrea","iso3":"ERI","rank":2,"minzoom":2.4,"maxzoom":6.5}},{"type":"Feature","geometry":{"type":"Point","coordinates":[10.176348489361702,1.4907579361702126]},"properties":{"kind":"country","name_zh":"赤道几内亚","name_en":"Eq. Guinea","iso3":"GNQ","rank":2,"minzoom":2.4,"maxzoom":6.5}},{"type":"Feature","geometry":{"type":"Point","coordinates":[-88.81603016216218,13.850656581081079]},"properties":{"kind":"country","name_zh":"萨尔瓦多","name_en":"El Salvador","iso3":"SLV","rank":2,"minzoom":2.4,"maxzoom":6.5}},{"type":"Feature","geometry":{"type":"Point","coordinates":[30.803739861660056,27.639439561264815]},"properties":{"kind":"country","name_zh":"埃及","name_en":"Egypt","iso3":"EGY","rank":2,"minzoom":2.4,"maxzoom":6.5}},{"type":"Feature","geometry":{"type":"Point","coordinates":[-78.57863739834026,-2.016289730290455]},"properties":{"kind":"country","name_zh":"厄瓜多尔","name_en":"Ecuador","iso3":"ECU","rank":2,"minzoom":2.4,"maxzoom":6.5}},{"type":"Feature","geometry":{"type":"Point","coordinates":[-70.50557954464286,18.825178776785712]},"properties":{"kind":"country","name_zh":"多米尼加","name_en":"Dominican Rep.","iso3":"DOM","rank":2,"minzoom":2.4,"maxzoom":6.5}},{"type":"Feature","geometry":{"type":"Point","coordinates":[-61.3612011,15.4371826]},"properties":{"kind":"country","name_zh":"多米尼克","name_en":"Dominica","iso3":"DMA","rank":2,"minzoom":2.4,"maxzoom":6.5}},{"type":"Feature","geometry":{"type":"Point","coordinates":[42.63477080357143,11.752295821428575]},"properties":{"kind":"country","name_zh":"吉布提","name_en":"Djibouti","iso3":"DJI","rank":2,"minzoom":2.4,"maxzoom":6.5}},{"type":"Feature","geometry":{"type":"Point","coordinates":[-41.777436834698086,72.46877203940636]},"properties":{"kind":"country","name_zh":"格陵兰","name_en":"Greenland","iso3":"GRL","rank":1,"minzoom":1.6,"maxzoom":6.5}},{"type":"Feature","geometry":{"type":"Point","coordinates":[-6.800841588235294,62.120864]},"properties":{"kind":"country","name_zh":"法罗群岛","name_en":"Faeroe Is.","iso3":"FRO","rank":2,"minzoom":2.4,"maxzoom":6.5}},{"type":"Feature","geometry":{"type":"Point","coordinates":[9.47095411403509,56.18937903508772]},"properties":{"kind":"country","name_zh":"丹麦","name_en":"Denmark","iso3":"DNK","rank":2,"minzoom":2.4,"maxzoom":6.5}},{"type":"Feature","geometry":{"type":"Point","coordinates":[15.440538775,49.87842160833329]},"properties":{"kind":"country","name_zh":"捷克","name_en":"Czechia","iso3":"CZE","rank":2,"minzoom":2.4,"maxzoom":6.5}},{"type":"Feature","geometry":{"type":"Point","coordinates":[33.53324311363636,35.202540159090894]},"properties":{"kind":"country","name_zh":"北塞浦路斯","name_en":"N. Cyprus","iso3":"CYN","rank":2,"minzoom":2.4,"maxzoom":6.5}},{"type":"Feature","geometry":{"type":"Point","coordinates":[33.20657262499999,34.95486012500001]},"properties":{"kind":"country","name_zh":"塞浦路斯","name_en":"Cyprus","iso3":"CYP","rank":2,"minzoom":2.4,"maxzoom":6.5}},{"type":"Feature","geometry":{"type":"Point","coordinates":[-79.26440298230091,21.616481438053086]},"properties":{"kind":"country","name_zh":"古巴","name_en":"Cuba","iso3":"CUB","rank":2,"minzoom":2.4,"maxzoom":6.5}},{"type":"Feature","geometry":{"type":"Point","coordinates":[16.599111813852804,45.12494503896108]},"properties":{"kind":"country","name_zh":"克罗地亚","name_en":"Croatia","iso3":"HRV","rank":2,"minzoom":2.4,"maxzoom":6.5}},{"type":"Feature","geometry":{"type":"Point","coordinates":[-5.825074505190312,8.019758972318337]},"properties":{"kind":"country","name_zh":"科特迪瓦","name_en":"Côte d'Ivoire","iso3":"CIV","rank":2,"minzoom":2.4,"maxzoom":6.5}},{"type":"Feature","geometry":{"type":"Point","coordinates":[-84.03182896240604,9.745937330827065]},"properties":{"kind":"country","name_zh":"哥斯达黎加","name_en":"Costa Rica","iso3":"CRI","rank":2,"minzoom":2.4,"maxzoom":6.5}},{"type":"Feature","geometry":{"type":"Point","coordinates":[23.715634160919546,-4.546785924466337]},"properties":{"kind":"country","name_zh":"刚果（金）","name_en":"Dem. Rep. Congo","iso3":"COD","rank":1,"minzoom":1.6,"maxzoom":6.5}},{"type":"Feature","geometry":{"type":"Point","coordinates":[14.374565563467474,-1.1440224024767804]},"properties":{"kind":"country","name_zh":"刚果（布）","name_en":"Congo","iso3":"COG","rank":2,"minzoom":2.4,"maxzoom":6.5}},{"type":"Feature","geometry":{"type":"Point","coordinates":[44.41755714285715,-12.186383928571429]},"properties":{"kind":"country","name_zh":"科摩罗","name_en":"Comoros","iso3":"COM","rank":2,"minzoom":2.4,"maxzoom":6.5}},{"type":"Feature","geometry":{"type":"Point","coordinates":[-72.69278221951224,3.48267076910569]},"properties":{"kind":"country","name_zh":"哥伦比亚","name_en":"Colombia","iso3":"COL","rank":2,"minzoom":2.4,"maxzoom":6.5}},{"type":"Feature","geometry":{"type":"Point","coordinates":[106.12054991606149,36.191474361581946]},"properties":{"kind":"country","name_zh":"中国","name_en":"China","iso3":"CHN","rank":1,"minzoom":1.6,"maxzoom":6.5}},{"type":"Feature","geometry":{"type":"Point","coordinates":[113.50408,22.215511000000003]},"properties":{"kind":"country","name_zh":"澳门","name_en":"Macao","iso3":"MAC","rank":2,"minzoom":2.4,"maxzoom":6.5}},{"type":"Feature","geometry":{"type":"Point","coordinates":[114.14216217391302,22.45987604347826]},"properties":{"kind":"country","name_zh":"香港","name_en":"Hong Kong","iso3":"HKG","rank":2,"minzoom":2.4,"maxzoom":6.5}},{"type":"Feature","geometry":{"type":"Point","coordinates":[-71.928464879476,-40.63522032489081]},"properties":{"kind":"country","name_zh":"智利","name_en":"Chile","iso3":"CHL","rank":2,"minzoom":2.4,"maxzoom":6.5}},{"type":"Feature","geometry":{"type":"Point","coordinates":[18.978079360824747,12.79039881099657]},"properties":{"kind":"country","name_zh":"乍得","name_en":"Chad","iso3":"TCD","rank":2,"minzoom":2.4,"maxzoom":6.5}},{"type":"Feature","geometry":{"type":"Point","coordinates":[20.08474904012344,6.394382037037038]},"properties":{"kind":"country","name_zh":"中非","name_en":"Central African Rep.","iso3":"CAF","rank":2,"minzoom":2.4,"maxzoom":6.5}},{"type":"Feature","geometry":{"type":"Point","coordinates":[-23.649166428571426,15.13081407142857]},"properties":{"kind":"country","name_zh":"佛得角","name_en":"Cabo Verde","iso3":"CPV","rank":2,"minzoom":2.4,"maxzoom":6.5}},{"type":"Feature","geometry":{"type":"Point","coordinates":[-94.48006221736516,60.30435785770281]},"properties":{"kind":"country","name_zh":"加拿大","name_en":"Canada","iso3":"CAN","rank":1,"minzoom":1.6,"maxzoom":6.5}},{"type":"Feature","geometry":{"type":"Point","coordinates":[12.994089580000008,6.252769117142858]},"properties":{"kind":"country","name_zh":"喀麦隆","name_en":"Cameroon","iso3":"CMR","rank":2,"minzoom":2.4,"maxzoom":6.5}},{"type":"Feature","geometry":{"type":"Point","coordinates":[105.2576932740385,12.711891985576923]},"properties":{"kind":"country","name_zh":"柬埔寨","name_en":"Cambodia","iso3":"KHM","rank":2,"minzoom":2.4,"maxzoom":6.5}},{"type":"Feature","geometry":{"type":"Point","coordinates":[96.93737643323432,19.972363200296734]},"properties":{"kind":"country","name_zh":"缅甸","name_en":"Myanmar","iso3":"MMR","rank":2,"minzoom":2.4,"maxzoom":6.5}},{"type":"Feature","geometry":{"type":"Point","coordinates":[29.996242756410254,-3.054105294871794]},"properties":{"kind":"country","name_zh":"布隆迪","name_en":"Burundi","iso3":"BDI","rank":2,"minzoom":2.4,"maxzoom":6.5}},{"type":"Feature","geometry":{"type":"Point","coordinates":[-1.6034544347826096,11.974494158102766]},"properties":{"kind":"country","name_zh":"布基纳法索","name_en":"Burkina Faso","iso3":"BFA","rank":2,"minzoom":2.4,"maxzoom":6.5}},{"type":"Feature","geometry":{"type":"Point","coordinates":[24.96090639106145,42.61495098882682]},"properties":{"kind":"country","name_zh":"保加利亚","name_en":"Bulgaria","iso3":"BGR","rank":2,"minzoom":2.4,"maxzoom":6.5}},{"type":"Feature","geometry":{"type":"Point","coordinates":[114.62487307499998,4.524876675000001]},"properties":{"kind":"country","name_zh":"文莱","name_en":"Brunei","iso3":"BRN","rank":2,"minzoom":2.4,"maxzoom":6.5}},{"type":"Feature","geometry":{"type":"Point","coordinates":[-56.30893477305828,-10.397148782160212]},"properties":{"kind":"country","name_zh":"巴西","name_en":"Brazil","iso3":"BRA","rank":1,"minzoom":1.6,"maxzoom":6.5}},{"type":"Feature","geometry":{"type":"Point","coordinates":[24.58467549773756,-22.523437049773747]},"properties":{"kind":"country","name_zh":"博茨瓦纳","name_en":"Botswana","iso3":"BWA","rank":2,"minzoom":2.4,"maxzoom":6.5}},{"type":"Feature","geometry":{"type":"Point","coordinates":[18.137128109589046,44.06770487671232]},"properties":{"kind":"country","name_zh":"波黑","name_en":"Bosnia and Herz.","iso3":"BIH","rank":2,"minzoom":2.4,"maxzoom":6.5}},{"type":"Feature","geometry":{"type":"Point","coordinates":[-65.15155172009567,-16.55089014354068]},"properties":{"kind":"country","name_zh":"玻利维亚","name_en":"Bolivia","iso3":"BOL","rank":2,"minzoom":2.4,"maxzoom":6.5}},{"type":"Feature","geometry":{"type":"Point","coordinates":[90.58430762,27.402659700000005]},"properties":{"kind":"country","name_zh":"不丹","name_en":"Bhutan","iso3":"BTN","rank":2,"minzoom":2.4,"maxzoom":6.5}},{"type":"Feature","geometry":{"type":"Point","coordinates":[2.3457184013605445,9.696912510204083]},"properties":{"kind":"country","name_zh":"贝宁","name_en":"Benin","iso3":"BEN","rank":2,"minzoom":2.4,"maxzoom":6.5}},{"type":"Feature","geometry":{"type":"Point","coordinates":[-88.68518957446808,17.357191234042553]},"properties":{"kind":"country","name_zh":"伯利兹","name_en":"Belize","iso3":"BLZ","rank":2,"minzoom":2.4,"maxzoom":6.5}},{"type":"Feature","geometry":{"type":"Point","coordinates":[4.727187658536585,50.59562762804879]},"properties":{"kind":"country","name_zh":"比利时","name_en":"Belgium","iso3":"BEL","rank":2,"minzoom":2.4,"maxzoom":6.5}},{"type":"Feature","geometry":{"type":"Point","coordinates":[28.12884847352024,53.51982039252335]},"properties":{"kind":"country","name_zh":"白俄罗斯","name_en":"Belarus","iso3":"BLR","rank":2,"minzoom":2.4,"maxzoom":6.5}},{"type":"Feature","geometry":{"type":"Point","coordinates":[-59.54626755555556,13.160997111111111]},"properties":{"kind":"country","name_zh":"巴巴多斯","name_en":"Barbados","iso3":"BRB","rank":2,"minzoom":2.4,"maxzoom":6.5}},{"type":"Feature","geometry":{"type":"Point","coordinates":[90.36463095061723,23.73523654012346]},"properties":{"kind":"country","name_zh":"孟加拉国","name_en":"Bangladesh","iso3":"BGD","rank":2,"minzoom":2.4,"maxzoom":6.5}},{"type":"Feature","geometry":{"type":"Point","coordinates":[50.54970715384615,26.05096146153846]},"properties":{"kind":"country","name_zh":"巴林","name_en":"Bahrain","iso3":"BHR","rank":2,"minzoom":2.4,"maxzoom":6.5}},{"type":"Feature","geometry":{"type":"Point","coordinates":[-77.35762509677421,26.484096193548382]},"properties":{"kind":"country","name_zh":"巴哈马","name_en":"Bahamas","iso3":"BHS","rank":2,"minzoom":2.4,"maxzoom":6.5}},{"type":"Feature","geometry":{"type":"Point","coordinates":[47.271278650485435,40.28789183009712]},"properties":{"kind":"country","name_zh":"阿塞拜疆","name_en":"Azerbaijan","iso3":"AZE","rank":2,"minzoom":2.4,"maxzoom":6.5}},{"type":"Feature","geometry":{"type":"Point","coordinates":[13.446065783088235,47.57484939705881]},"properties":{"kind":"country","name_zh":"奥地利","name_en":"Austria","iso3":"AUT","rank":2,"minzoom":2.4,"maxzoom":6.5}},{"type":"Feature","geometry":{"type":"Point","coordinates":[134.16109111005213,-23.23066017764297]},"properties":{"kind":"country","name_zh":"澳大利亚","name_en":"Australia","iso3":"AUS","rank":1,"minzoom":1.6,"maxzoom":6.5}},{"type":"Feature","geometry":{"type":"Point","coordinates":[96.84188064285716,-12.165101857142856]},"properties":{"kind":"country","name_zh":"英属印度洋领地","name_en":"Indian Ocean Ter.","iso3":"IOA","rank":2,"minzoom":2.4,"maxzoom":6.5}},{"type":"Feature","geometry":{"type":"Point","coordinates":[73.51009106666667,-53.07556626666666]},"properties":{"kind":"country","name_zh":"赫德岛和麦克唐纳群岛","name_en":"Heard I. and McDonald Is.","iso3":"HMD","rank":2,"minzoom":2.4,"maxzoom":6.5}},{"type":"Feature","geometry":{"type":"Point","coordinates":[167.94327676923078,-29.05676846153846]},"properties":{"kind":"country","name_zh":"诺福克岛","name_en":"Norfolk Island","iso3":"NFK","rank":2,"minzoom":2.4,"maxzoom":6.5}},{"type":"Feature","geometry":{"type":"Point","coordinates":[123.58597660000001,-12.429082400000002]},"properties":{"kind":"country","name_zh":"阿什莫尔和卡捷岛","name_en":"Ashmore and Cartier Is.","iso3":"ATC","rank":2,"minzoom":2.4,"maxzoom":6.5}},{"type":"Feature","geometry":{"type":"Point","coordinates":[45.21857359689921,40.132398031007746]},"properties":{"kind":"country","name_zh":"亚美尼亚","name_en":"Armenia","iso3":"ARM","rank":2,"minzoom":2.4,"maxzoom":6.5}},{"type":"Feature","geometry":{"type":"Point","coordinates":[-65.39057638356168,-36.23127677555325]},"properties":{"kind":"country","name_zh":"阿根廷","name_en":"Argentina","iso3":"ARG","rank":1,"minzoom":1.6,"maxzoom":6.5}},{"type":"Feature","geometry":{"type":"Point","coordinates":[-61.76171866666666,17.072957499999998]},"properties":{"kind":"country","name_zh":"安提瓜和巴布达","name_en":"Antigua and Barb.","iso3":"ATG","rank":2,"minzoom":2.4,"maxzoom":6.5}},{"type":"Feature","geometry":{"type":"Point","coordinates":[18.123801097972954,-11.6588151554054]},"properties":{"kind":"country","name_zh":"安哥拉","name_en":"Angola","iso3":"AGO","rank":2,"minzoom":2.4,"maxzoom":6.5}},{"type":"Feature","geometry":{"type":"Point","coordinates":[1.5632452631578946,42.52996510526315]},"properties":{"kind":"country","name_zh":"安道尔","name_en":"Andorra","iso3":"AND","rank":2,"minzoom":2.4,"maxzoom":6.5}},{"type":"Feature","geometry":{"type":"Point","coordinates":[1.7899424041994734,29.230014939632554]},"properties":{"kind":"country","name_zh":"阿尔及利亚","name_en":"Algeria","iso3":"DZA","rank":1,"minzoom":1.6,"maxzoom":6.5}},{"type":"Feature","geometry":{"type":"Point","coordinates":[20.102865796460183,41.09108261946905]},"properties":{"kind":"country","name_zh":"阿尔巴尼亚","name_en":"Albania","iso3":"ALB","rank":2,"minzoom":2.4,"maxzoom":6.5}},{"type":"Feature","geometry":{"type":"Point","coordinates":[67.56409206829265,34.941269651219514]},"properties":{"kind":"country","name_zh":"阿富汗","name_en":"Afghanistan","iso3":"AFG","rank":2,"minzoom":2.4,"maxzoom":6.5}},{"type":"Feature","geometry":{"type":"Point","coordinates":[77.23571895238096,35.39433357142857]},"properties":{"kind":"country","name_zh":"锡亚琴冰川","name_en":"Siachen Glacier","iso3":"KAS","rank":2,"minzoom":2.4,"maxzoom":6.5}},{"type":"Feature","geometry":{"type":"Point","coordinates":[-63.07253785714285,18.05387814285714]},"properties":{"kind":"country","name_zh":"荷属圣马丁","name_en":"Sint Maarten","iso3":"SXM","rank":2,"minzoom":2.4,"maxzoom":6.5}},{"type":"Feature","geometry":{"type":"Point","coordinates":[179.2052246,-8.5058205]},"properties":{"kind":"country","name_zh":"图瓦卢","name_en":"Tuvalu","iso3":"TUV","rank":2,"minzoom":2.4,"maxzoom":6.5}},{"type":"Feature","geometry":{"type":"Point","coordinates":[116.4074,39.9042]},"properties":{"kind":"city","name_zh":"北京","name_en":"Beijing","rank":1,"minzoom":3.8,"maxzoom":12}},{"type":"Feature","geometry":{"type":"Point","coordinates":[121.4737,31.2304]},"properties":{"kind":"city","name_zh":"上海","name_en":"Shanghai","rank":1,"minzoom":3.8,"maxzoom":12}},{"type":"Feature","geometry":{"type":"Point","coordinates":[114.1694,22.3193]},"properties":{"kind":"city","name_zh":"香港","name_en":"Hong Kong","rank":1,"minzoom":3.8,"maxzoom":12}},{"type":"Feature","geometry":{"type":"Point","coordinates":[121.5654,25.033]},"properties":{"kind":"city","name_zh":"台北","name_en":"Taipei","rank":1,"minzoom":3.8,"maxzoom":12}},{"type":"Feature","geometry":{"type":"Point","coordinates":[139.6917,35.6895]},"properties":{"kind":"city","name_zh":"东京","name_en":"Tokyo","rank":1,"minzoom":3.8,"maxzoom":12}},{"type":"Feature","geometry":{"type":"Point","coordinates":[126.978,37.5665]},"properties":{"kind":"city","name_zh":"首尔","name_en":"Seoul","rank":1,"minzoom":3.8,"maxzoom":12}},{"type":"Feature","geometry":{"type":"Point","coordinates":[125.7625,39.0392]},"properties":{"kind":"city","name_zh":"平壤","name_en":"Pyongyang","rank":2,"minzoom":5.2,"maxzoom":12}},{"type":"Feature","geometry":{"type":"Point","coordinates":[106.9057,47.8864]},"properties":{"kind":"city","name_zh":"乌兰巴托","name_en":"Ulaanbaatar","rank":2,"minzoom":5.2,"maxzoom":12}},{"type":"Feature","geometry":{"type":"Point","coordinates":[103.8198,1.3521]},"properties":{"kind":"city","name_zh":"新加坡","name_en":"Singapore","rank":1,"minzoom":3.8,"maxzoom":12}},{"type":"Feature","geometry":{"type":"Point","coordinates":[100.5018,13.7563]},"properties":{"kind":"city","name_zh":"曼谷","name_en":"Bangkok","rank":1,"minzoom":3.8,"maxzoom":12}},{"type":"Feature","geometry":{"type":"Point","coordinates":[105.8342,21.0278]},"properties":{"kind":"city","name_zh":"河内","name_en":"Hanoi","rank":1,"minzoom":3.8,"maxzoom":12}},{"type":"Feature","geometry":{"type":"Point","coordinates":[106.6297,10.8231]},"properties":{"kind":"city","name_zh":"胡志明市","name_en":"Ho Chi Minh City","rank":2,"minzoom":5.2,"maxzoom":12}},{"type":"Feature","geometry":{"type":"Point","coordinates":[120.9842,14.5995]},"properties":{"kind":"city","name_zh":"马尼拉","name_en":"Manila","rank":1,"minzoom":3.8,"maxzoom":12}},{"type":"Feature","geometry":{"type":"Point","coordinates":[106.8456,-6.2088]},"properties":{"kind":"city","name_zh":"雅加达","name_en":"Jakarta","rank":1,"minzoom":3.8,"maxzoom":12}},{"type":"Feature","geometry":{"type":"Point","coordinates":[101.6869,3.139]},"properties":{"kind":"city","name_zh":"吉隆坡","name_en":"Kuala Lumpur","rank":1,"minzoom":3.8,"maxzoom":12}},{"type":"Feature","geometry":{"type":"Point","coordinates":[96.1951,16.8661]},"properties":{"kind":"city","name_zh":"仰光","name_en":"Yangon","rank":2,"minzoom":5.2,"maxzoom":12}},{"type":"Feature","geometry":{"type":"Point","coordinates":[77.209,28.6139]},"properties":{"kind":"city","name_zh":"新德里","name_en":"New Delhi","rank":1,"minzoom":3.8,"maxzoom":12}},{"type":"Feature","geometry":{"type":"Point","coordinates":[72.8777,19.076]},"properties":{"kind":"city","name_zh":"孟买","name_en":"Mumbai","rank":1,"minzoom":3.8,"maxzoom":12}},{"type":"Feature","geometry":{"type":"Point","coordinates":[88.3639,22.5726]},"properties":{"kind":"city","name_zh":"加尔各答","name_en":"Kolkata","rank":2,"minzoom":5.2,"maxzoom":12}},{"type":"Feature","geometry":{"type":"Point","coordinates":[90.4125,23.8103]},"properties":{"kind":"city","name_zh":"达卡","name_en":"Dhaka","rank":1,"minzoom":3.8,"maxzoom":12}},{"type":"Feature","geometry":{"type":"Point","coordinates":[73.0479,33.6844]},"properties":{"kind":"city","name_zh":"伊斯兰堡","name_en":"Islamabad","rank":1,"minzoom":3.8,"maxzoom":12}},{"type":"Feature","geometry":{"type":"Point","coordinates":[67.0011,24.8607]},"properties":{"kind":"city","name_zh":"卡拉奇","name_en":"Karachi","rank":2,"minzoom":5.2,"maxzoom":12}},{"type":"Feature","geometry":{"type":"Point","coordinates":[69.2075,34.5553]},"properties":{"kind":"city","name_zh":"喀布尔","name_en":"Kabul","rank":1,"minzoom":3.8,"maxzoom":12}},{"type":"Feature","geometry":{"type":"Point","coordinates":[51.389,35.6892]},"properties":{"kind":"city","name_zh":"德黑兰","name_en":"Tehran","rank":1,"minzoom":3.8,"maxzoom":12}},{"type":"Feature","geometry":{"type":"Point","coordinates":[44.3661,33.3152]},"properties":{"kind":"city","name_zh":"巴格达","name_en":"Baghdad","rank":1,"minzoom":3.8,"maxzoom":12}},{"type":"Feature","geometry":{"type":"Point","coordinates":[46.6753,24.7136]},"properties":{"kind":"city","name_zh":"利雅得","name_en":"Riyadh","rank":1,"minzoom":3.8,"maxzoom":12}},{"type":"Feature","geometry":{"type":"Point","coordinates":[55.2708,25.2048]},"properties":{"kind":"city","name_zh":"迪拜","name_en":"Dubai","rank":1,"minzoom":3.8,"maxzoom":12}},{"type":"Feature","geometry":{"type":"Point","coordinates":[35.2137,31.7683]},"properties":{"kind":"city","name_zh":"耶路撒冷","name_en":"Jerusalem","rank":1,"minzoom":3.8,"maxzoom":12}},{"type":"Feature","geometry":{"type":"Point","coordinates":[32.8597,39.9334]},"properties":{"kind":"city","name_zh":"安卡拉","name_en":"Ankara","rank":1,"minzoom":3.8,"maxzoom":12}},{"type":"Feature","geometry":{"type":"Point","coordinates":[28.9784,41.0082]},"properties":{"kind":"city","name_zh":"伊斯坦布尔","name_en":"Istanbul","rank":1,"minzoom":3.8,"maxzoom":12}},{"type":"Feature","geometry":{"type":"Point","coordinates":[37.6173,55.7558]},"properties":{"kind":"city","name_zh":"莫斯科","name_en":"Moscow","rank":1,"minzoom":3.8,"maxzoom":12}},{"type":"Feature","geometry":{"type":"Point","coordinates":[30.3351,59.9343]},"properties":{"kind":"city","name_zh":"圣彼得堡","name_en":"Saint Petersburg","rank":2,"minzoom":5.2,"maxzoom":12}},{"type":"Feature","geometry":{"type":"Point","coordinates":[30.5234,50.4501]},"properties":{"kind":"city","name_zh":"基辅","name_en":"Kyiv","rank":1,"minzoom":3.8,"maxzoom":12}},{"type":"Feature","geometry":{"type":"Point","coordinates":[21.0122,52.2297]},"properties":{"kind":"city","name_zh":"华沙","name_en":"Warsaw","rank":1,"minzoom":3.8,"maxzoom":12}},{"type":"Feature","geometry":{"type":"Point","coordinates":[13.405,52.52]},"properties":{"kind":"city","name_zh":"柏林","name_en":"Berlin","rank":1,"minzoom":3.8,"maxzoom":12}},{"type":"Feature","geometry":{"type":"Point","coordinates":[2.3522,48.8566]},"properties":{"kind":"city","name_zh":"巴黎","name_en":"Paris","rank":1,"minzoom":3.8,"maxzoom":12}},{"type":"Feature","geometry":{"type":"Point","coordinates":[-0.1276,51.5074]},"properties":{"kind":"city","name_zh":"伦敦","name_en":"London","rank":1,"minzoom":3.8,"maxzoom":12}},{"type":"Feature","geometry":{"type":"Point","coordinates":[-3.7038,40.4168]},"properties":{"kind":"city","name_zh":"马德里","name_en":"Madrid","rank":1,"minzoom":3.8,"maxzoom":12}},{"type":"Feature","geometry":{"type":"Point","coordinates":[12.4964,41.9028]},"properties":{"kind":"city","name_zh":"罗马","name_en":"Rome","rank":1,"minzoom":3.8,"maxzoom":12}},{"type":"Feature","geometry":{"type":"Point","coordinates":[23.7275,37.9838]},"properties":{"kind":"city","name_zh":"雅典","name_en":"Athens","rank":1,"minzoom":3.8,"maxzoom":12}},{"type":"Feature","geometry":{"type":"Point","coordinates":[16.3738,48.2082]},"properties":{"kind":"city","name_zh":"维也纳","name_en":"Vienna","rank":2,"minzoom":5.2,"maxzoom":12}},{"type":"Feature","geometry":{"type":"Point","coordinates":[4.9041,52.3676]},"properties":{"kind":"city","name_zh":"阿姆斯特丹","name_en":"Amsterdam","rank":2,"minzoom":5.2,"maxzoom":12}},{"type":"Feature","geometry":{"type":"Point","coordinates":[4.3517,50.8503]},"properties":{"kind":"city","name_zh":"布鲁塞尔","name_en":"Brussels","rank":2,"minzoom":5.2,"maxzoom":12}},{"type":"Feature","geometry":{"type":"Point","coordinates":[18.0686,59.3293]},"properties":{"kind":"city","name_zh":"斯德哥尔摩","name_en":"Stockholm","rank":2,"minzoom":5.2,"maxzoom":12}},{"type":"Feature","geometry":{"type":"Point","coordinates":[10.7522,59.9139]},"properties":{"kind":"city","name_zh":"奥斯陆","name_en":"Oslo","rank":2,"minzoom":5.2,"maxzoom":12}},{"type":"Feature","geometry":{"type":"Point","coordinates":[24.9384,60.1699]},"properties":{"kind":"city","name_zh":"赫尔辛基","name_en":"Helsinki","rank":2,"minzoom":5.2,"maxzoom":12}},{"type":"Feature","geometry":{"type":"Point","coordinates":[12.5683,55.6761]},"properties":{"kind":"city","name_zh":"哥本哈根","name_en":"Copenhagen","rank":2,"minzoom":5.2,"maxzoom":12}},{"type":"Feature","geometry":{"type":"Point","coordinates":[8.5417,47.3769]},"properties":{"kind":"city","name_zh":"苏黎世","name_en":"Zurich","rank":2,"minzoom":5.2,"maxzoom":12}},{"type":"Feature","geometry":{"type":"Point","coordinates":[14.4378,50.0755]},"properties":{"kind":"city","name_zh":"布拉格","name_en":"Prague","rank":2,"minzoom":5.2,"maxzoom":12}},{"type":"Feature","geometry":{"type":"Point","coordinates":[19.0402,47.4979]},"properties":{"kind":"city","name_zh":"布达佩斯","name_en":"Budapest","rank":2,"minzoom":5.2,"maxzoom":12}},{"type":"Feature","geometry":{"type":"Point","coordinates":[26.1025,44.4268]},"properties":{"kind":"city","name_zh":"布加勒斯特","name_en":"Bucharest","rank":2,"minzoom":5.2,"maxzoom":12}},{"type":"Feature","geometry":{"type":"Point","coordinates":[20.4489,44.7866]},"properties":{"kind":"city","name_zh":"贝尔格莱德","name_en":"Belgrade","rank":2,"minzoom":5.2,"maxzoom":12}},{"type":"Feature","geometry":{"type":"Point","coordinates":[31.2357,30.0444]},"properties":{"kind":"city","name_zh":"开罗","name_en":"Cairo","rank":1,"minzoom":3.8,"maxzoom":12}},{"type":"Feature","geometry":{"type":"Point","coordinates":[3.3792,6.5244]},"properties":{"kind":"city","name_zh":"拉各斯","name_en":"Lagos","rank":1,"minzoom":3.8,"maxzoom":12}},{"type":"Feature","geometry":{"type":"Point","coordinates":[36.8219,-1.2921]},"properties":{"kind":"city","name_zh":"内罗毕","name_en":"Nairobi","rank":1,"minzoom":3.8,"maxzoom":12}},{"type":"Feature","geometry":{"type":"Point","coordinates":[38.7578,9.032]},"properties":{"kind":"city","name_zh":"亚的斯亚贝巴","name_en":"Addis Ababa","rank":1,"minzoom":3.8,"maxzoom":12}},{"type":"Feature","geometry":{"type":"Point","coordinates":[28.0473,-26.2041]},"properties":{"kind":"city","name_zh":"约翰内斯堡","name_en":"Johannesburg","rank":1,"minzoom":3.8,"maxzoom":12}},{"type":"Feature","geometry":{"type":"Point","coordinates":[18.4241,-33.9249]},"properties":{"kind":"city","name_zh":"开普敦","name_en":"Cape Town","rank":2,"minzoom":5.2,"maxzoom":12}},{"type":"Feature","geometry":{"type":"Point","coordinates":[-7.5898,33.5731]},"properties":{"kind":"city","name_zh":"卡萨布兰卡","name_en":"Casablanca","rank":2,"minzoom":5.2,"maxzoom":12}},{"type":"Feature","geometry":{"type":"Point","coordinates":[3.0588,36.7538]},"properties":{"kind":"city","name_zh":"阿尔及尔","name_en":"Algiers","rank":2,"minzoom":5.2,"maxzoom":12}},{"type":"Feature","geometry":{"type":"Point","coordinates":[13.1913,32.8872]},"properties":{"kind":"city","name_zh":"的黎波里","name_en":"Tripoli","rank":2,"minzoom":5.2,"maxzoom":12}},{"type":"Feature","geometry":{"type":"Point","coordinates":[32.5599,15.5007]},"properties":{"kind":"city","name_zh":"喀土穆","name_en":"Khartoum","rank":2,"minzoom":5.2,"maxzoom":12}},{"type":"Feature","geometry":{"type":"Point","coordinates":[-74.006,40.7128]},"properties":{"kind":"city","name_zh":"纽约","name_en":"New York","rank":1,"minzoom":3.8,"maxzoom":12}},{"type":"Feature","geometry":{"type":"Point","coordinates":[-77.0369,38.9072]},"properties":{"kind":"city","name_zh":"华盛顿","name_en":"Washington, D.C.","rank":1,"minzoom":3.8,"maxzoom":12}},{"type":"Feature","geometry":{"type":"Point","coordinates":[-118.2437,34.0522]},"properties":{"kind":"city","name_zh":"洛杉矶","name_en":"Los Angeles","rank":1,"minzoom":3.8,"maxzoom":12}},{"type":"Feature","geometry":{"type":"Point","coordinates":[-87.6298,41.8781]},"properties":{"kind":"city","name_zh":"芝加哥","name_en":"Chicago","rank":1,"minzoom":3.8,"maxzoom":12}},{"type":"Feature","geometry":{"type":"Point","coordinates":[-122.4194,37.7749]},"properties":{"kind":"city","name_zh":"旧金山","name_en":"San Francisco","rank":1,"minzoom":3.8,"maxzoom":12}},{"type":"Feature","geometry":{"type":"Point","coordinates":[-95.3698,29.7604]},"properties":{"kind":"city","name_zh":"休斯顿","name_en":"Houston","rank":2,"minzoom":5.2,"maxzoom":12}},{"type":"Feature","geometry":{"type":"Point","coordinates":[-79.3832,43.6532]},"properties":{"kind":"city","name_zh":"多伦多","name_en":"Toronto","rank":1,"minzoom":3.8,"maxzoom":12}},{"type":"Feature","geometry":{"type":"Point","coordinates":[-123.1207,49.2827]},"properties":{"kind":"city","name_zh":"温哥华","name_en":"Vancouver","rank":1,"minzoom":3.8,"maxzoom":12}},{"type":"Feature","geometry":{"type":"Point","coordinates":[-99.1332,19.4326]},"properties":{"kind":"city","name_zh":"墨西哥城","name_en":"Mexico City","rank":1,"minzoom":3.8,"maxzoom":12}},{"type":"Feature","geometry":{"type":"Point","coordinates":[-82.3666,23.1136]},"properties":{"kind":"city","name_zh":"哈瓦那","name_en":"Havana","rank":1,"minzoom":3.8,"maxzoom":12}},{"type":"Feature","geometry":{"type":"Point","coordinates":[-74.0721,4.711]},"properties":{"kind":"city","name_zh":"波哥大","name_en":"Bogota","rank":1,"minzoom":3.8,"maxzoom":12}},{"type":"Feature","geometry":{"type":"Point","coordinates":[-77.0428,-12.0464]},"properties":{"kind":"city","name_zh":"利马","name_en":"Lima","rank":1,"minzoom":3.8,"maxzoom":12}},{"type":"Feature","geometry":{"type":"Point","coordinates":[-70.6693,-33.4489]},"properties":{"kind":"city","name_zh":"圣地亚哥","name_en":"Santiago","rank":1,"minzoom":3.8,"maxzoom":12}},{"type":"Feature","geometry":{"type":"Point","coordinates":[-58.3816,-34.6037]},"properties":{"kind":"city","name_zh":"布宜诺斯艾利斯","name_en":"Buenos Aires","rank":1,"minzoom":3.8,"maxzoom":12}},{"type":"Feature","geometry":{"type":"Point","coordinates":[-46.6333,-23.5505]},"properties":{"kind":"city","name_zh":"圣保罗","name_en":"Sao Paulo","rank":1,"minzoom":3.8,"maxzoom":12}},{"type":"Feature","geometry":{"type":"Point","coordinates":[-43.1729,-22.9068]},"properties":{"kind":"city","name_zh":"里约热内卢","name_en":"Rio de Janeiro","rank":1,"minzoom":3.8,"maxzoom":12}},{"type":"Feature","geometry":{"type":"Point","coordinates":[-47.8825,-15.7942]},"properties":{"kind":"city","name_zh":"巴西利亚","name_en":"Brasilia","rank":1,"minzoom":3.8,"maxzoom":12}},{"type":"Feature","geometry":{"type":"Point","coordinates":[-66.9036,10.4806]},"properties":{"kind":"city","name_zh":"加拉加斯","name_en":"Caracas","rank":1,"minzoom":3.8,"maxzoom":12}},{"type":"Feature","geometry":{"type":"Point","coordinates":[-78.4678,-0.1807]},"properties":{"kind":"city","name_zh":"基多","name_en":"Quito","rank":2,"minzoom":5.2,"maxzoom":12}},{"type":"Feature","geometry":{"type":"Point","coordinates":[151.2093,-33.8688]},"properties":{"kind":"city","name_zh":"悉尼","name_en":"Sydney","rank":1,"minzoom":3.8,"maxzoom":12}},{"type":"Feature","geometry":{"type":"Point","coordinates":[144.9631,-37.8136]},"properties":{"kind":"city","name_zh":"墨尔本","name_en":"Melbourne","rank":1,"minzoom":3.8,"maxzoom":12}},{"type":"Feature","geometry":{"type":"Point","coordinates":[149.13,-35.2809]},"properties":{"kind":"city","name_zh":"堪培拉","name_en":"Canberra","rank":1,"minzoom":3.8,"maxzoom":12}},{"type":"Feature","geometry":{"type":"Point","coordinates":[174.7633,-36.8485]},"properties":{"kind":"city","name_zh":"奥克兰","name_en":"Auckland","rank":1,"minzoom":3.8,"maxzoom":12}},{"type":"Feature","geometry":{"type":"Point","coordinates":[174.7762,-41.2865]},"properties":{"kind":"city","name_zh":"惠灵顿","name_en":"Wellington","rank":2,"minzoom":5.2,"maxzoom":12}},{"type":"Feature","geometry":{"type":"Point","coordinates":[178.4419,-18.1248]},"properties":{"kind":"city","name_zh":"苏瓦","name_en":"Suva","rank":2,"minzoom":5.2,"maxzoom":12}},{"type":"Feature","geometry":{"type":"Point","coordinates":[-72.3074,18.5944]},"properties":{"kind":"city","name_zh":"太子港","name_en":"Port-au-Prince","rank":2,"minzoom":5.2,"maxzoom":12}},{"type":"Feature","geometry":{"type":"Point","coordinates":[-79.5199,8.9824]},"properties":{"kind":"city","name_zh":"巴拿马城","name_en":"Panama City","rank":2,"minzoom":5.2,"maxzoom":12}},{"type":"Feature","geometry":{"type":"Point","coordinates":[-90.5069,14.6349]},"properties":{"kind":"city","name_zh":"危地马拉城","name_en":"Guatemala City","rank":2,"minzoom":5.2,"maxzoom":12}},{"type":"Feature","geometry":{"type":"Point","coordinates":[69.2401,41.2995]},"properties":{"kind":"city","name_zh":"塔什干","name_en":"Tashkent","rank":1,"minzoom":3.8,"maxzoom":12}},{"type":"Feature","geometry":{"type":"Point","coordinates":[71.4704,51.1605]},"properties":{"kind":"city","name_zh":"阿斯塔纳","name_en":"Astana","rank":1,"minzoom":3.8,"maxzoom":12}},{"type":"Feature","geometry":{"type":"Point","coordinates":[76.8512,43.222]},"properties":{"kind":"city","name_zh":"阿拉木图","name_en":"Almaty","rank":2,"minzoom":5.2,"maxzoom":12}},{"type":"Feature","geometry":{"type":"Point","coordinates":[74.5698,42.8746]},"properties":{"kind":"city","name_zh":"比什凯克","name_en":"Bishkek","rank":2,"minzoom":5.2,"maxzoom":12}},{"type":"Feature","geometry":{"type":"Point","coordinates":[44.8271,41.7151]},"properties":{"kind":"city","name_zh":"第比利斯","name_en":"Tbilisi","rank":2,"minzoom":5.2,"maxzoom":12}},{"type":"Feature","geometry":{"type":"Point","coordinates":[44.5152,40.1872]},"properties":{"kind":"city","name_zh":"埃里温","name_en":"Yerevan","rank":2,"minzoom":5.2,"maxzoom":12}},{"type":"Feature","geometry":{"type":"Point","coordinates":[49.8671,40.4093]},"properties":{"kind":"city","name_zh":"巴库","name_en":"Baku","rank":2,"minzoom":5.2,"maxzoom":12}},{"type":"Feature","geometry":{"type":"Point","coordinates":[34.7818,32.0853]},"properties":{"kind":"city","name_zh":"特拉维夫","name_en":"Tel Aviv","rank":2,"minzoom":5.2,"maxzoom":12}},{"type":"Feature","geometry":{"type":"Point","coordinates":[36.2765,33.5138]},"properties":{"kind":"city","name_zh":"大马士革","name_en":"Damascus","rank":1,"minzoom":3.8,"maxzoom":12}},{"type":"Feature","geometry":{"type":"Point","coordinates":[35.5018,33.8938]},"properties":{"kind":"city","name_zh":"贝鲁特","name_en":"Beirut","rank":2,"minzoom":5.2,"maxzoom":12}},{"type":"Feature","geometry":{"type":"Point","coordinates":[35.9106,31.9539]},"properties":{"kind":"city","name_zh":"安曼","name_en":"Amman","rank":2,"minzoom":5.2,"maxzoom":12}},{"type":"Feature","geometry":{"type":"Point","coordinates":[47.9774,29.3759]},"properties":{"kind":"city","name_zh":"科威特城","name_en":"Kuwait City","rank":2,"minzoom":5.2,"maxzoom":12}},{"type":"Feature","geometry":{"type":"Point","coordinates":[51.531,25.2854]},"properties":{"kind":"city","name_zh":"多哈","name_en":"Doha","rank":2,"minzoom":5.2,"maxzoom":12}},{"type":"Feature","geometry":{"type":"Point","coordinates":[54.3773,24.4539]},"properties":{"kind":"city","name_zh":"阿布扎比","name_en":"Abu Dhabi","rank":1,"minzoom":3.8,"maxzoom":12}},{"type":"Feature","geometry":{"type":"Point","coordinates":[44.2067,15.3694]},"properties":{"kind":"city","name_zh":"萨那","name_en":"Sanaa","rank":2,"minzoom":5.2,"maxzoom":12}},{"type":"Feature","geometry":{"type":"Point","coordinates":[45.3182,2.0469]},"properties":{"kind":"city","name_zh":"摩加迪沙","name_en":"Mogadishu","rank":2,"minzoom":5.2,"maxzoom":12}},{"type":"Feature","geometry":{"type":"Point","coordinates":[15.2663,-4.4419]},"properties":{"kind":"city","name_zh":"金沙萨","name_en":"Kinshasa","rank":1,"minzoom":3.8,"maxzoom":12}},{"type":"Feature","geometry":{"type":"Point","coordinates":[-0.187,5.6037]},"properties":{"kind":"city","name_zh":"阿克拉","name_en":"Accra","rank":2,"minzoom":5.2,"maxzoom":12}},{"type":"Feature","geometry":{"type":"Point","coordinates":[-17.4467,14.7167]},"properties":{"kind":"city","name_zh":"达喀尔","name_en":"Dakar","rank":2,"minzoom":5.2,"maxzoom":12}},{"type":"Feature","geometry":{"type":"Point","coordinates":[-4.0083,5.36]},"properties":{"kind":"city","name_zh":"阿比让","name_en":"Abidjan","rank":2,"minzoom":5.2,"maxzoom":12}}]}